QIANFAN-9               
1 60387U 24140J   26009.68072509  .00000165  00000+0  23668-3 0  9998
2 60387  88.9783 296.4497 0017656 112.9239 247.3778 13.50989103 71108
QIANFAN-10              
1 60388U 24140K   26009.68489131  .00000165  00000+0  23603-3 0  9991
2 60388  88.9793 295.7993 0016470  92.1522 268.1515 13.50989511 71237
QIANFAN-11              
1 60389U 24140L   26009.64799791  .00000173  00000+0  24862-3 0  9991
2 60389  88.9719 296.3694 0015700 112.2785 248.0033 13.50985602 70880
QIANFAN-12              
1 60390U 24140M   26009.59440727  .00000178  00000+0  25681-3 0  9994
2 60390  88.9762 296.4305 0014347 119.4430 240.8155 13.50986458 71002
QIANFAN-13              
1 60391U 24140N   26009.63965707  .00000160  00000+0  22896-3 0  9996
2 60391  88.9774 296.5291 0014106 121.6767 238.5762 13.50986945 71034
QIANFAN-14              
1 60392U 24140P   26009.59021070  .00000174  00000+0  25011-3 0  9995
2 60392  88.9753 296.4260 0017770 122.9953 237.2909 13.50986457 71035
QIANFAN-15              
1 60393U 24140Q   26009.59850904  .00000164  00000+0  23482-3 0  9991
2 60393  88.9777 296.3882 0013885 109.1618 251.1037 13.50985066 71020
QIANFAN-16              
1 60394U 24140R   26009.80837262  .00000157  00000+0  22361-3 0  9995
2 60394  88.9780 296.4875 0015641 125.4374 234.8240 13.50990447 70965
